Satellite: NuSat2
Catalog number: 41558
Epoch time: 17252.776997
Element set: 999
Inclination: 97.461200 deg
RA of node: 332.350900 deg
Eccentricity: 0.001515
Arg of perigee: 70.483300 deg
Mean anomaly: 289.804100 deg
Mean motion: 15.271643 rev/day
Decay rate: 7.831000e-05 rev/day^2
Epoch rev: 7133

Satellite: Lapan A3
Catalog number: 41603
Epoch time: 17252.812246
Element set: 999
Inclination: 97.451600 deg
RA of node: 313.750600 deg
Eccentricity: 0.001491
Arg of perigee: 134.087000 deg
Mean anomaly: 1.773100 deg
Mean motion: 15.194014 rev/day
Decay rate: 7.010000e-06 rev/day^2
Epoch rev: 6750

Satellite: Swayam
Catalog number: 41607
Epoch time: 17252.409575
Element set: 999
Inclination: 97.452300 deg
RA of node: 313.837800 deg
Eccentricity: 0.001547
Arg of perigee: 137.719600 deg
Mean anomaly: 222.523500 deg
Mean motion: 15.211075 rev/day
Decay rate: 7.193000e-05 rev/day^2
Epoch rev: 674

Satellite: Pratham
Catalog number: 41783
Epoch time: 17252.225135
Element set: 999
Inclination: 98.159200 deg
RA of node: 312.695000 deg
Eccentricity: 0.003235
Arg of perigee: 256.754900 deg
Mean anomaly: 103.004300 deg
Mean motion: 14.628567 rev/day
Decay rate: 2.020000e-06 rev/day^2
Epoch rev: 508

Satellite: AlSat 1N
Catalog number: 41789
Epoch time: 17252.690837
Element set: 999
Inclination: 98.157900 deg
RA of node: 313.820900 deg
Eccentricity: 0.002696
Arg of perigee: 248.383100 deg
Mean anomaly: 111.449600 deg
Mean motion: 14.640737 rev/day
Decay rate: 5.300000e-06 rev/day^2
Epoch rev: 5097

Satellite: ScatSat
Catalog number: 41790
Epoch time: 17252.555327
Element set: 999
Inclination: 98.302300 deg
RA of node: 299.793800 deg
Eccentricity: 0.001722
Arg of perigee: 229.754100 deg
Mean anomaly: 130.214800 deg
Mean motion: 14.508538 rev/day
Decay rate: 1.140000e-06 rev/day^2
Epoch rev: 504

Satellite: TY-1
Catalog number: 41844
Epoch time: 17252.432780
Element set: 999
Inclination: 97.406000 deg
RA of node: 258.326700 deg
Eccentricity: 0.001428
Arg of perigee: 306.792600 deg
Mean anomaly: 185.690000 deg
Mean motion: 15.222784 rev/day
Decay rate: 5.268000e-05 rev/day^2
Epoch rev: 4615

Satellite: CAS-2T
Catalog number: 41845
Epoch time: 17252.463134
Element set: 999
Inclination: 98.775400 deg
RA of node: 270.101800 deg
Eccentricity: 0.036560
Arg of perigee: 358.351500 deg
Mean anomaly: 1.642200 deg
Mean motion: 14.377922 rev/day
Decay rate: -1.360000e-06 rev/day^2
Epoch rev: 4360

Satellite: Pegasus-1
Catalog number: 41846
Epoch time: 17252.559398
Element set: 999
Inclination: 98.778700 deg
RA of node: 269.919700 deg
Eccentricity: 0.036912
Arg of perigee: 359.594900 deg
Mean anomaly: 0.488600 deg
Mean motion: 14.371060 rev/day
Decay rate: 1.888000e-05 rev/day^2
Epoch rev: 435

Satellite: STARS-C
Catalog number: 41895
Epoch time: 17252.512491
Element set: 999
Inclination: 51.636600 deg
RA of node: 327.266500 deg
Eccentricity: 0.000423
Arg of perigee: 307.496800 deg
Mean anomaly: 52.564300 deg
Mean motion: 15.666955 rev/day
Decay rate: 8.871700e-04 rev/day^2
Epoch rev: 411

Satellite: Tancredo 1
Catalog number: 41931
Epoch time: 17252.582687
Element set: 999
Inclination: 51.631400 deg
RA of node: 318.649000 deg
Eccentricity: 0.000451
Arg of perigee: 328.110800 deg
Mean anomaly: 31.962000 deg
Mean motion: 15.803302 rev/day
Decay rate: 2.612300e-03 rev/day^2
Epoch rev: 368

Satellite: TO-89
Catalog number: 41932
Epoch time: 17252.434362
Element set: 999
Inclination: 51.640800 deg
RA of node: 331.292400 deg
Eccentricity: 0.000396
Arg of perigee: 232.974900 deg
Mean anomaly: 127.088200 deg
Mean motion: 15.617141 rev/day
Decay rate: 4.247000e-04 rev/day^2
Epoch rev: 3669

Satellite: AOBA-V3LOX3
Catalog number: 41935
Epoch time: 17252.593842
Element set: 999
Inclination: 51.640000 deg
RA of node: 330.100300 deg
Eccentricity: 0.000343
Arg of perigee: 241.946600 deg
Mean anomaly: 118.118100 deg
Mean motion: 15.623292 rev/day
Decay rate: 4.737400e-04 rev/day^2
Epoch rev: 368

Satellite: OSNSAT
Catalog number: 41939
Epoch time: 17252.566065
Element set: 999
Inclination: 51.636200 deg
RA of node: 324.609700 deg
Eccentricity: 0.000364
Arg of perigee: 267.398100 deg
Mean anomaly: 92.659900 deg
Mean motion: 15.696788 rev/day
Decay rate: 1.151300e-03 rev/day^2
Epoch rev: 361

Satellite: EO-88
Catalog number: 42017
Epoch time: 17252.592564
Element set: 999
Inclination: 97.486800 deg
RA of node: 313.864200 deg
Eccentricity: 0.000495
Arg of perigee: 289.615000 deg
Mean anomaly: 70.455200 deg
Mean motion: 15.233071 rev/day
Decay rate: 8.342000e-05 rev/day^2
Epoch rev: 313

Satellite: HAVELSAT
Catalog number: 42700
Epoch time: 17252.746831
Element set: 999
Inclination: 51.640200 deg
RA of node: 334.853800 deg
Eccentricity: 0.000616
Arg of perigee: 289.587100 deg
Mean anomaly: 70.445700 deg
Mean motion: 15.581868 rev/day
Decay rate: 3.591700e-04 rev/day^2
Epoch rev: 1811

Satellite: SOMP2
Catalog number: 42701
Epoch time: 17252.693036
Element set: 999
Inclination: 51.640400 deg
RA of node: 335.248700 deg
Eccentricity: 0.000607
Arg of perigee: 289.323300 deg
Mean anomaly: 70.710300 deg
Mean motion: 15.578772 rev/day
Decay rate: 3.484600e-04 rev/day^2
Epoch rev: 1809

Satellite: Columbia
Catalog number: 42702
Epoch time: 17252.657249
Element set: 999
Inclination: 51.639000 deg
RA of node: 334.255600 deg
Eccentricity: 0.000642
Arg of perigee: 295.584300 deg
Mean anomaly: 64.448700 deg
Mean motion: 15.613822 rev/day
Decay rate: 9.492500e-04 rev/day^2
Epoch rev: 1803

Satellite: PHOENIX
Catalog number: 42706
Epoch time: 17252.688757
Element set: 999
Inclination: 51.640400 deg
RA of node: 335.222100 deg
Eccentricity: 0.000138
Arg of perigee: 294.009700 deg
Mean anomaly: 66.075000 deg
Mean motion: 15.580235 rev/day
Decay rate: 4.072200e-04 rev/day^2
Epoch rev: 1801

Satellite: X-CubeSat
Catalog number: 42707
Epoch time: 17252.753025
Element set: 999
Inclination: 51.639600 deg
RA of node: 334.896400 deg
Eccentricity: 0.000144
Arg of perigee: 296.214400 deg
Mean anomaly: 63.870000 deg
Mean motion: 15.580794 rev/day
Decay rate: 3.869700e-04 rev/day^2
Epoch rev: 1801

Satellite: qbee
Catalog number: 42708
Epoch time: 17252.691884
Element set: 999
Inclination: 51.639700 deg
RA of node: 335.238800 deg
Eccentricity: 0.000151
Arg of perigee: 295.461100 deg
Mean anomaly: 64.622500 deg
Mean motion: 15.580059 rev/day
Decay rate: 3.950400e-04 rev/day^2
Epoch rev: 1796

