NuSat2
1 41558U 16033C   17252.77699726  .00007831  00000-0  29588-3 0  9990
2 41558  97.4612 332.3509 0015150  70.4833 289.8041 15.27164335 71339
Lapan A3
1 41603U 16040E   17252.81224632  .00000701  00000-0  36274-4 0  9994
2 41603  97.4516 313.7506 0014907 134.0870   1.7731 15.19401366 67500
Swayam
1 41607U 16040J   17252.40957542  .00007193  00000-0  32544-3 0  9993
2 41607 097.4523 313.8378 0015466 137.7196 222.5235 15.21107456067409
Pratham
1 41783U 16059A   17252.22513490  .00000202  00000-0  48818-4 0  9994
2 41783 098.1592 312.6950 0032352 256.7549 103.0043 14.62856703050882
AlSat 1N
1 41789U 16059G   17252.69083701  .00000530  00000-0  10977-3 0  9996
2 41789  98.1579 313.8209 0026958 248.3831 111.4496 14.64073657 50975
ScatSat
1 41790U 16059H   17252.55532728  .00000114  00000-0  40188-4 0  9997
2 41790 098.3023 299.7938 0017216 229.7541 130.2148 14.50853833050499
TY-1
1 41844U 16066D   17252.43278007  .00005268  00000-0  23129-3 0  9999
2 41844  97.4060 258.3267 0014277 306.7926 185.6900 15.22278401 46153
CAS-2T
1 41845U 16066E   17252.46313384 -.00000136  00000-0 -95982-5 0  9990
2 41845  98.7754 270.1018 0365605 358.3515   1.6422 14.37792155 43600
Pegasus-1
1 41846U 16066F   17252.55939782  .00001888  00000-0  29785-3 0  9996
2 41846 098.7787 269.9197 0369121 359.5949 000.4886 14.37106028043599
STARS-C
1 41895U 98067KR  17252.51249097  .00088717  00000-0  82331-3 0  9992
2 41895 051.6366 327.2665 0004226 307.4968 052.5643 15.66695472041188
Tancredo 1
1 41931U 98067KT  17252.58268687  .00261230  00000-0  13170-2 0  9993
2 41931 051.6314 318.6490 0004514 328.1108 031.9620 15.80330248036877
TO-89
1 41932U 98067KU  17252.43436188  .00042470  00000-0  48567-3 0  9993
2 41932  51.6408 331.2924 0003962 232.9749 127.0882 15.61714121 36696
AOBA-V3LOX3
1 41935U 98067KX  17252.59384214  .00047374  00000-0  52805-3 0  9993
2 41935 051.6400 330.1003 0003433 241.9466 118.1181 15.62329160036820
OSNSAT
1 41939U 98067KZ  17252.56606510  .00115130  00000-0  94153-3 0  9998
2 41939 051.6362 324.6097 0003639 267.3981 092.6599 15.69678806036150
EO-88
1 42017U 17008BX  17252.59256446  .00008342  00000-0  35437-3 0  9990
2 42017 097.4868 313.8642 0004947 289.6150 070.4552 15.23307132031330
HAVELSAT
1 42700U 98067LH  17252.74683076  .00035917  00000-0  47091-3 0  9990
2 42700  51.6402 334.8538 0006156 289.5871  70.4457 15.58186787 18119
SOMP2
1 42701U 98067LJ  17252.69303602  .00034846  00000-0  46247-3 0  9991
2 42701  51.6404 335.2487 0006074 289.3233  70.7103 15.57877221 18096
Columbia
1 42702U 98067LK  17252.65724945  .00094925  00000-0  10844-2 0  9992
2 42702  51.6390 334.2556 0006421 295.5843  64.4487 15.61382196 18035
PHOENIX
1 42706U 98067LP  17252.68875719  .00040722  00000-0  53635-3 0  9997
2 42706  51.6404 335.2221 0001380 294.0097  66.0750 15.58023458 18017
X-CubeSat
1 42707U 98067LQ  17252.75302479  .00038697  00000-0  50906-3 0  9990
2 42707  51.6396 334.8964 0001438 296.2144  63.8700 15.58079430 18019
qbee
1 42708U 98067LR  17252.69188415  .00039504  00000-0  52091-3 0  9991
2 42708  51.6397 335.2388 0001506 295.4611  64.6225 15.58005926 17965
